LANDSAT 5               
1 14780U 84021A   08219.75389178  .00000017  00000-0  13814-4 0  6360
2 14780  98.1452 285.2794 0006878   7.0239 353.1041 14.57145101299598
SPOT 2                  
1 20436U 90005A   08219.82347227  .00000176  00000-0  10301-3 0  4889
2 20436  98.6453 290.3175 0001823  84.5471  24.3227 14.20066584961071
ERS-2                   
1 23560U 95021A   08219.75352015  .00000004  00000-0  17821-4 0  2317
2 23560  98.5475 293.1533 0001153  89.6354 270.4955 14.32250822695200
RADARSAT-1              
1 23710U 95059A   08219.82631944  .00000117  00000-0  62389-4 0  3667
2 23710  98.5779 225.1066 0001141  88.5006 252.4117 14.29982303665871
TOMS EP                 
1 23940U 96037A   08219.01729916 -.00000009  00000-0  85946-5 0  8411
2 23940  98.0726  98.0481 0028425 250.1060 109.7077 14.52191942643683
MIDORI (ADEOS)          
1 24277U 96046A   08219.12577207 -.00000042  00000-0 -32551-6 0  8313
2 24277  98.3170 191.4244 0001815  89.0671 271.0720 14.28586303623946
ORBVIEW 2 (SEASTAR)     
1 24883U 97037A   08219.36118167  .00000062  00000-0  22766-4 0  4220
2 24883  98.3097 335.9387 0002561  97.7716 262.3780 14.59950311586502
IRS-1D                  
1 24971U 97057A   08219.79093083  .00000054  00000-0  34019-4 0  4478
2 24971  98.2831 264.4115 0055187 150.5585 209.8715 14.32934572567802
TRMM                    
1 25063U 97074A   08218.57389029  .00001366  00000-0  19927-4 0  8385
2 25063  34.9664 266.0227 0001114 277.2578  82.8019 15.55731962610908
SPOT 4                  
1 25260U 98017A   08219.81474480  .00000169  00000-0  10000-3 0  2630
2 25260  98.6957 291.8469 0001398  80.8618  58.5038 14.20039910537713
FASAT B                 
1 25395U 98043B   08219.19841679  .00000040  00000-0  35352-4 0  2273
2 25395  98.3793 259.7330 0003791  53.1210 307.0314 14.24304076523601
TECHSAT 1B (GO-32)      
1 25397U 98043D   08219.80190546 -.00000135  00000-0 -41571-4 0  6656
2 25397  98.3614 252.4577 0002267  97.7180 262.4265 14.23146058523416
LANDSAT 7               
1 25682U 99020A   08219.79033666 -.00000031  00000-0  32199-5 0  7232
2 25682  98.1897 286.0637 0001615  90.7368 269.4001 14.57118501495299
KITSAT 3                
1 25756U 99029A   08219.70081613  .00000081  00000-0  31570-4 0  6930
2 25756  98.6634  36.2918 0014818  51.6287 308.6267 14.52506438487507
DLR-TUBSAT              
1 25757U 99029B   08219.79717240 -.00000012  00000-0  90281-5 0  9328
2 25757  98.6667  27.5337 0015461  74.7438 285.5472 14.50826437487122
IRS-P4 (OCEANSAT 1)     
1 25758U 99029C   08219.16942539  .00000032  00000-0  19111-4 0  9278
2 25758  98.2817 313.1751 0001617 112.7587 247.3848 14.50858844487182
QUIKSCAT                
1 25789U 99034A   08219.57294276 -.00000038  00000-0  23031-5 0  2111
2 25789  98.6363  46.8199 0001367  88.8428 271.2898 14.26774538475594
IKONOS 2                
1 25919U 99051A   08219.76966137 -.00000057  00000-0 -18514-5 0  8363
2 25919  98.1087 293.7876 0001381  71.1392 288.9949 14.64448032474043
CBERS 1 (ZY 1A)         
1 25940U 99057A   08219.75977538 -.00000026  00000-0  53025-5 0  9462
2 25940  98.1652 236.5347 0004207 318.9382  41.1475 14.34426455461731
TERRA                   
1 25994U 99068A   08219.81013917  .00000050  00000-0  21146-4 0  8342
2 25994  98.2083 293.2535 0000810  80.8446 279.2834 14.57107118459377
ARIRANG 1 (KOMPSAT-1)   
1 26032U 99070A   08219.75824284 -.00000004  00000-0  77394-5 0  9976
2 26032  97.9616 104.8796 0005669 139.0805 221.0822 14.65536131461430
EO-1                    
1 26619U 00075A   08219.78429484 -.00001930  00000-0 -37759-3 0  2095
2 26619  98.1454 285.6468 0008789 203.4575 156.6163 14.61767284410339
SAC C                   
1 26620U 00075B   08218.66803518  .00000064  00000-0  24059-4 0  4937
2 26620  97.9527 260.7119 0001112  92.6769 267.4555 14.56551957409743
EROS A1                 
1 26631U 00079A   08219.83114101  .00000731  00000-0  34264-4 0  9492
2 26631  97.3601 284.8341 0007423   3.2432 104.5160 15.22737574426727
QUICKBIRD 2             
1 26953U 01047A   08219.83293486  .00001027  00000-0  27818-4 0   339
2 26953  97.1773 297.1708 0001278  65.0309  73.7033 15.39917218382233
TES                     
1 26957U 01049A   08219.82012095 -.00000324  00000-0 -21422-4 0  2102
2 26957  97.5640 300.2689 0020698 194.3487 165.7149 14.99653796372072
JASON-1                 
1 26997U 01055A   08218.35612157 -.00000038  00000-0  10000-3 0  9225
2 26997  66.0448   6.6497 0007712 263.6405  96.3700 12.80929655311588
METEOR-3M               
1 27001U 01056A   08219.69773455 -.00000021  00000-0  24506-4 0  2378
2 27001  99.3002  81.2092 0013929 132.1953 228.0376 13.68701727332496
BADR B                  
1 27003U 01056C   08219.21321280  .00000116  00000-0  17993-3 0  1300
2 27003  99.2940  86.5446 0020421 139.0121 221.2565 13.70094929332821
MAROC-TUBSAT            
1 27004U 01056D   08219.83370800  .00000116  00000-0  18044-3 0  1444
2 27004  99.2961  86.5920 0018899 136.2097 224.0546 13.70026572332884
ENVISAT                 
1 27386U 02009A   08219.17382327  .00000025  00000-0  25269-4 0  6183
2 27386  98.5446 285.0828 0001105  88.3937 271.7376 14.32250217336408
SPOT 5                  
1 27421U 02021A   08219.76498542  .00000031  00000-0  34842-4 0  1852
2 27421  98.6828 290.5450 0000483  76.7892 283.3329 14.20052901324540
AQUA                    
1 27424U 02022A   08219.48676119  .00000054  00000-0  22098-4 0  9115
2 27424  98.2319 159.4724 0001245  67.6817 292.4514 14.57095019332930
HAIYANG-1A              
1 27430U 02024A   08219.41153243  .00000016  00000-0  23096-4 0  8380
2 27430  98.5222 287.0566 0008158 289.1550  70.8749 14.29660984325095
ALSAT 1                 
1 27559U 02054A   08219.78952304  .00000013  00000-0  11502-4 0  4854
2 27559  97.9882  99.0223 0010738 353.8246   6.2825 14.62973572303722
MIDORI II (ADEOS-II)    
1 27597U 02056A   08219.26475024  .00000020  00000-0  26342-4 0  6263
2 27597  98.5167 287.1902 0001609 104.6531 255.4817 14.26135100293901
ICESAT                  
1 27642U 03002A   08219.22989655 -.00002119  00000-0 -21635-3 0  9380
2 27642  94.0061 132.8973 0002629  85.2912 274.8609 14.90448923302748
ORBVIEW 3               
1 27838U 03030A   08219.86964698  .00000847  00000-0  23478-4 0  5702
2 27838  97.1019 282.7354 0002377  96.3357  18.6421 15.39623190287020
IRS-P6 (RESOURCESAT-1)  
1 28051U 03046A   08219.78656209  .00000012  00000-0  25562-4 0  7313
2 28051  98.7492 293.0495 0002103   3.4787 356.6405 14.21612160249440
CBERS 2 (ZY 1B)         
1 28057U 03049A   08219.77663781 -.00000066  00000-0 -82112-5 0  5262
2 28057  98.3309 277.6963 0002781  82.8401 277.3087 14.35337014251303
TANSUO 1                
1 28220U 04012A   08219.33363307  .00000194  00000-0  26434-4 0  9536
2 28220  97.5398 266.8358 0012051 153.4306 206.7512 14.88538132233572
FORMOSAT-2 (ROCSAT 2)   
1 28254U 04018A   08219.79610223  .00000106  00000-0  10000-3 0  8309
2 28254  98.9193 282.1070 0003176  85.8477  52.1725 14.00796402215506
AURA                    
1 28376U 04026A   08219.08050379 -.00000002  00000-0  97573-5 0  2767
2 28376  98.2303 161.2296 0001244  54.2765 305.8560 14.57090163215922
PARASOL                 
1 28498U 04049G   08219.48838974  .00000045  00000-0  20016-4 0  1869
2 28498  98.2344 159.1937 0001342  83.2946 276.8405 14.57095478193252
IRS-P5 (CARTOSAT-1)     
1 28649U 05017A   08219.85240027  .00000053  00000-0  13097-4 0  7136
2 28649  97.9040 291.2898 0001712  55.9684 304.1689 14.82636832176285
TOPSAT                  
1 28891U 05043B   08219.81788079 -.00000008  00000-0  79366-5 0  1412
2 28891  98.0848 112.1599 0015968 250.9312 109.0162 14.59727362148004
SINAH 1                 
1 28893U 05043D   08219.86121786 -.00000015  00000-0  65541-5 0  1020
2 28893  98.0869 112.8514 0014540 251.5495 108.4121 14.60047254148046
ALOS (DAICHI)           
1 28931U 06002A   08219.81976889 -.00010931  00000-0 -22959-2 0  8733
2 28931  98.2243 292.3638 0001984 100.2001 259.9415 14.59536178135049
EROS B                  
1 29079U 06014A   08219.83367946  .00000556  00000-0  27888-4 0  6051
2 29079  97.4135 338.9066 0008785  61.3958  94.5080 15.21338563126713
RSS-1 (YAOGAN 1)        
1 29092U 06015A   08219.83932922  .00000021  00000-0  94168-5 0  5769
2 29092  97.8189 215.6411 0002101  81.1278 279.0172 14.80270825123266
RESURS-DK 1             
1 29228U 06021A   08219.88300348  .00000976  00000-0  22495-4 0  4382
2 29228  69.9350 132.1242 0161486 312.3279  46.4274 15.34862762120133
ARIRANG 2 (KOMPSAT-2)   
1 29268U 06031A   08219.83036049  .00000029  00000-0  15224-4 0  2723
2 29268  98.0712 114.4680 0019218  54.8315 305.4681 14.61653836108163
LAPAN-TUBSAT            
1 29709U 07001A   08219.80319932  .00000023  00000-0  98004-5 0  7450
2 29709  97.8627 276.8627 0012267 223.2380 136.7870 14.80221990 84970
CARTOSAT-2 (IRS-P7)     
1 29710U 07001B   08219.85648239  .00000301  00000-0  48117-4 0  7540
2 29710  97.9293 279.9722 0001286  30.4926 329.6342 14.78650272 84934
HAIYANG-1B              
1 31113U 07010A   08219.78987635  .00000025  00000-0  27720-4 0  4826
2 31113  98.5812 292.9706 0021199 243.6844 116.2158 14.28054996 69032
COSMO-SKYMED 1          
1 31598U 07023A   08219.80192785  .00000018  00000-0  88428-5 0  3233
2 31598  97.8673  47.9314 0001316  72.2486 287.8873 14.82165322 63057
TERRASAR-X              
1 31698U 07026A   08219.87893980 -.00000133  00000-0 -31568-5 0  2893
2 31698  97.4463 225.7910 0001575  77.2994  19.6233 15.19147147 63557
WORLDVIEW-1 (WV-1)      
1 32060U 07041A   08219.86388443  .00000256  00000-0  13423-4 0    66
2 32060  97.4641 293.3223 0001684 113.2845 353.5991 15.24258798 49202
CBERS 2B                
1 32062U 07042A   08219.84459573  .00000008  00000-0  18154-4 0  9936
2 32062  98.5187 294.3623 0001560  76.1590 283.9765 14.35432763 46303
COSMO-SKYMED 2          
1 32376U 07059A   08219.76815657 -.00000013  00000-0  48407-5 0  7381
2 32376  97.8676  47.8988 0001297  81.1313 279.0047 14.82167425 35799
RADARSAT-2              
1 32382U 07061A   08219.81717851  .00000031  00000-0  28753-4 0  7306
2 32382  98.5792 225.9192 0001116  80.7170  21.4569 14.29981137 33763
CARTOSAT-2A             
1 32783U 08021A   08219.75367649  .00000072  00000-0  16983-4 0  3254
2 32783  97.9958 279.1993 0015902 357.2225   2.8880 14.78747428 14862
IMS-1                   
1 32786U 08021D   08219.19106980  .00000007  00000-0  79917-5 0  1257
2 32786  97.9930 278.8007 0012270 334.5356  25.5249 14.80025044 14794
JASON 2 (OSTM)          
1 33105U 08032A   08219.68404457 -.00000061  00000-0  00000+0 0   542
2 33105  66.0443   4.1189 0007692 264.2606  95.7529 12.80930321  6068
